S-NET B                 
1 43187U 18014H   22246.71393937  .00000667  00000+0  61156-4 0  9996
2 43187  97.6497 150.8881 0011867  39.7553 320.4537 14.98120590250632
S-NET A                 
1 43188U 18014J   22246.71424409  .00000657  00000+0  60280-4 0  9992
2 43188  97.6502 150.9562 0011850  39.7974 320.4115 14.98120021250637
S-NET C                 
1 43189U 18014K   22246.71508574  .00000681  00000+0  62360-4 0  9997
2 43189  97.6495 150.8768 0011791  39.5963 320.6119 14.98116488249182
FENGMANIU-1 (FMN-1)     
1 43192U 18015A   22246.92179892  .00022914  00000+0  53975-3 0  9996
2 43192  97.5436  34.3984 0010649 111.1466   6.8090 15.41886535255524
SHAONIAN XING           
1 43199U 18015H   22246.85736267  .00012469  00000+0  35370-3 0  9993
2 43199  97.5238  28.7302 0013556 120.7872  33.4114 15.36282703255477
LUOJIA-1 01             
1 43485U 18048B   22246.83617415  .00000541  00000+0  83006-4 0  9996
2 43485  97.9315 326.8322 0010083 311.4913  48.5424 14.77479831229449
SURFSAT                 
1 43614U 18070B   22246.87913659  .00044299  00000+0  53256-3 0  9999
2 43614  93.0215 132.1602 0012913  73.6203 286.6481 15.60611030223276
CP7 (DAVE)              
1 43615U 18070C   22246.64434695  .00038801  00000+0  50167-3 0  9993
2 43615  93.0201 131.8258 0013550  76.3621 283.9152 15.58698627223197
ELFIN-B                 
1 43616U 18070D   22246.68790896  .00252981  00000+0  95883-3 0  9997
2 43616  93.0072 133.8733 0008888  80.4649 279.7635 15.86991231223678
ELFIN-A                 
1 43617U 18070E   22246.65781062  .00428868  74885-4  10207-2 0  9992
2 43617  93.0101 135.5095 0007689  97.3843 262.8317 15.96615320223755
CZ-4B R/B               
1 43656U 18081B   22246.84909383  .00000098  00000+0  48219-4 0  9996
2 43656  99.4088  27.0495 0207325 279.0627  78.7146 14.30596081201567
CUBEBEL-1 (BSUSAT-1)    
1 43666U 18083E   22246.93115588  .00005995  00000+0  24736-3 0  9993
2 43666  97.4168 274.7714 0014515  61.8923  23.1395 15.24323563213439
CHANGSHAGAOXIN (TY 4-01)
1 43669U 18083H   22246.87002434  .00005423  00000+0  23539-3 0  9990
2 43669  97.4118 270.4454 0011121  62.6985  61.6085 15.22687611213234
TEN-KOH                 
1 43677U 18084G   22246.85487334  .00001039  00000+0  11012-3 0  9996
2 43677  97.9743  17.6695 0016082  17.9492 342.2290 14.91256746209368
DIWATA-2B               
1 43678U 18084H   22246.97112822  .00000193  00000+0  24722-4 0  9990
2 43678  97.9817  21.2077 0010629  32.4587 327.7267 14.92273094209564
STARS-AO                
1 43679U 18084J   22246.83483646  .00001358  00000+0  13351-3 0  9990
2 43679  97.9850  23.1921 0009605  38.1697 322.0201 14.93822456209646
AUTCUBE 2               
1 43681U 18084K   22246.88586788  .00001079  00000+0  10903-3 0  9999
2 43681  97.9812  21.7756 0009918  33.0583 327.1254 14.93142532209556
IRVINE01                
1 43693U 18088D   22246.75446970  .00037830  00000+0  86890-3 0  9992
2 43693  85.0244 257.5534 0012983 158.1357 202.0453 15.42438196212277
ES'HAIL 2               
1 43700U 18090A   22246.85743721  .00000141  00000+0  00000+0 0  9999
2 43700   0.0108 121.9780 0002114  72.9491 122.5017  1.00273351 13816
FACSAT-1                
1 43721U 18096C   22246.93199110  .00014980  00000+0  39252-3 0  9995
2 43721  97.3470 326.7936 0014286 129.4844 318.0242 15.38682207210036
CENTAURI-2              
1 43722U 18096D   22246.72699396  .00028722  00000+0  65362-3 0  9994
2 43722  97.3514 329.0505 0012882 127.1156 233.1271 15.42845225210131
3CAT-1                  
1 43728U 18096K   22246.79460919  .00027496  00000+0  62649-3 0  9996
2 43728  97.3525 329.8867 0012886 128.7782 231.4619 15.42817216210185
INNOSAT-2               
1 43738U 18096V   22246.91034049  .00055292  00000+0  76950-3 0  9997
2 43738  97.3607 337.7809 0011647 119.0579 337.1237 15.56713304210685
REAKTOR HELLO WORLD     
1 43743U 18096AA  22246.70408153  .00011880  00000+0  34514-3 0  9996
2 43743  97.3483 326.3122 0015708 135.3849 224.8662 15.35504718209965
ELYSIUM STAR 2 & LFF    
1 43760U 18099C   22246.83598362  .00003576  00000+0  29771-3 0  9996
2 43760  97.6229 313.6986 0013089   0.4167 359.7064 14.99222072204864
2018-099D               
1 43761U 18099D   22246.93079591  .00000891  00000+0  84333-4 0  9999
2 43761  97.6163 311.5445 0014358  12.6241 347.5338 14.96023699204755
AISTECHSAT 2            
1 43768U 18099L   22246.69924872  .00001051  00000+0  98646-4 0  9991
2 43768  97.6107 309.7936 0011332  13.4481 346.7040 14.95982888204381
FOX-1CLIFF (AO-95)      
1 43770U 18099N   22246.74977068  .00001439  00000+0  13071-3 0  9993
2 43770  97.6151 311.0577 0014545  19.6496 340.5283 14.96734607204727
RANGE-A                 
1 43772U 18099Q   22246.64243664  .00001956  00000+0  17275-3 0  9996
2 43772  97.6257 312.8181 0013497   4.6236 355.5108 14.97434888204739
RANGE-B                 
1 43773U 18099R   22246.76212496  .00000811  00000+0  76742-4 0  9993
2 43773  97.6068 309.8234 0013263   6.7821 353.3578 14.96244102204700
2018-099T               
1 43775U 18099T   22246.68997545  .00000583  00000+0  56635-4 0  9996
2 43775  97.6149 311.0614 0014568  11.2084 348.9460 14.96187720204702
MOVE-II                 
1 43780U 18099Y   22246.83739822  .00002901  00000+0  24888-3 0  9991
2 43780  97.6179 312.4684 0012759  11.6789 348.4727 14.98206917204791
SNUSAT-2                
1 43782U 18099AA  22246.72185578  .00001906  00000+0  17094-3 0  9999
2 43782  97.6148 311.5130 0012098   6.0724 354.0642 14.96873994204745
SNUGLITE                
1 43784U 18099AC  22246.74760601  .00001639  00000+0  14667-3 0  9995
2 43784  97.6117 311.1689 0014886  12.8008 347.3589 14.97121568204777
ITASAT 1                
1 43786U 18099AE  22246.80337398  .00002009  00000+0  17991-3 0  9992
2 43786  97.6178 312.0693 0014873  12.7721 347.3874 14.96838903204772
KAZSCISAT-1             
1 43787U 18099AF  22246.82050500  .00002122  00000+0  18339-3 0  9995
2 43787  97.6101 311.3487 0013659   7.0347 353.1065 14.98191508204833
EAGLET-I                
1 43790U 18099AJ  22246.75757854  .00000707  00000+0  66347-4 0  9997
2 43790  97.6170 312.5669 0013454  15.6861 344.4775 14.96965953204503
ESEO                    
1 43792U 18099AL  22246.18926055  .00001025  00000+0  95572-4 0  9993
2 43792  97.6117 311.1136 0013277  15.6884 344.4746 14.96311507204450
CSIM-FD                 
1 43793U 18099AM  22246.77532622  .00002958  00000+0  24941-3 0  9999
2 43793  97.6182 313.3853 0012004   1.6949 358.4312 14.98881123204617
ASTROCAST 0.1           
1 43798U 18099AS  22246.76139665  .00002158  00000+0  18725-3 0  9998
2 43798  97.6183 313.1577 0011789 352.4888   7.6156 14.98036584204838
JY1SAT (JO-97)          
1 43803U 18099AX  22246.72665217  .00002263  00000+0  19926-3 0  9999
2 43803  97.6134 311.7742 0014465  11.6179 348.5375 14.97396601204782
SUOMI-100               
1 43804U 18099AY  22246.74996808  .00001557  00000+0  13897-3 0  9991
2 43804  97.6138 311.7030 0014973  11.7071 348.4496 14.97288704204791
AL-FARABI 2             
1 43805U 18099AZ  22246.90565571  .00001260  00000+0  11157-3 0  9997
2 43805  97.6155 312.4315 0015054   7.4692 352.6755 14.97930191204842
CENTAURI-1              
1 43809U 18099BD  22246.73200555  .00001882  00000+0  16840-3 0  9994
2 43809  97.6146 311.9767 0014878  13.3611 346.8002 14.96948006204484
CHOMPTT                 
1 43855U 18104G   22246.82841313  .00007667  00000+0  27377-3 0  9999
2 43855  85.0382 358.8547 0013189 312.1081  47.9042 15.28584937206692
DAVINCI                 
1 43857U 18104J   22246.77467321  .00039150  00000+0  90557-3 0  9990
2 43857  85.0281 355.8601 0008112 322.5392  37.5295 15.42279885206919
UWE-4                   
1 43880U 18111E   22246.73655291  .00002033  00000+0  17474-3 0  9992
2 43880  97.6591 151.6707 0012722  61.5654 298.6849 14.98478021201429
ZACUBE-2                
1 43907U 18111AH  22246.89504853  .00004644  00000+0  16799-3 0  9995
2 43907  97.1781 130.4162 0020246 155.5408 337.1744 15.28713697205271
MICRODRAGON             
1 43935U 19003D   22246.83604772  .00005005  00000+0  19345-3 0  9994
2 43935  97.1335 273.4388 0014669 253.9514 106.0110 15.26570236201654
AOBA VELOX-IV           
1 43940U 19003J   22246.82182279  .00022523  00000+0  54760-3 0  9996
2 43940  97.1208 280.5253 0015404 213.0348 146.9938 15.40860888202180
M6P                     
1 44109U 19018AF  22246.75803952  .00016715  00000+0  38311-3 0  9990
2 44109  97.3926 331.8252 0044813 203.0911 156.8323 15.41749025191519
FORMOSAT 7-4            
1 44350U 19036M   22246.29460666  .00003106  00000+0  16638-3 0  9996
2 44350  23.9990 208.0543 0005358 293.8570  66.1373 15.09776784175246
PAINANI 1               
1 44365U 19037A   22246.51831314  .00039445  00000+0  48727-3 0  9999
2 44365  44.9958 285.4770 0010618 356.2623   3.8192 15.59464452179408
METEOR-M2 2             
1 44387U 19038A   22246.86381110 -.00000023  00000+0  94761-5 0  9998
2 44387  98.7295 207.0395 0002298  62.4532 297.6891 14.23718059164561
VDNH-80                 
1 44392U 19038G   22246.88682894  .00004728  00000+0  23464-3 0  9994
2 44392  97.6413 217.5008 0017762 215.8077 203.4897 15.18071848174749
D-STAR ONE (LIGHTSAT)   
1 44393U 19038H   22246.88537029  .00006918  00000+0  34082-3 0  9995
2 44393  97.6424 217.4000 0017895 215.8590 144.1443 15.18148925174930
AMGU-1 (AMURSAT)        
1 44394U 19038J   22246.87491268  .00005596  00000+0  27404-3 0  9990
2 44394  97.6409 217.3598 0017642 216.8158 143.1865 15.18452335174936
DOT-1                   
1 44399U 19038P   22246.89177958  .00004229  00000+0  22427-3 0  9996
2 44399  97.6468 215.9999 0021229 224.6909 135.2613 15.15739226174827
SOKRAT                  
1 44404U 19038U   22246.87914277  .00007550  00000+0  37068-3 0  9991
2 44404  97.6412 216.9997 0017917 217.7551 142.2427 15.18235652174915
